{
  "type": "FeatureCollection",
  "features": [
    {
      "type": "Feature",
      "properties": {
        "norad_id": 66508,
        "name": "STARLINK-35608",
        "group": "last-30-days",
        "lat": -11.444303367407977,
        "lon": 158.57699023965029,
        "alt_km": 373.10250624993023,
        "timestamp": "2025-12-04T21:36:14.652395+00:00",
        "meta_object_name": "STARLINK-35608",
        "meta_object_id": "2025-263Z",
        "meta_epoch": "2025-12-04T14:00:01.000224",
        "meta_mean_motion": 15.66775908,
        "meta_eccentricity": 0.00017767,
        "meta_inclination": 42.9988,
        "meta_ra_of_asc_node": 173.0221,
        "meta_arg_of_pericenter": 262.1848,
        "meta_mean_anomaly": 92.5803,
        "meta_ephemeris_type": 0,
        "meta_classification_type": "U",
        "meta_norad_cat_id": 66508,
        "meta_element_set_no": 999,
        "meta_rev_at_epoch": 432,
        "meta_bstar": -0.021065774,
        "meta_mean_motion_dot": -0.02010908,
        "meta_mean_motion_ddot": 0,
        "tle_line1": "1 66508U 25263Z   25338.58334491 -.02010908  00000+0 -21066-1 0  9998",
        "tle_line2": "2 66508  42.9988 173.0221 0001776 262.1848  92.5803 15.66775908  4325"
      },
      "geometry": {
        "type": "Point",
        "coordinates": [
          158.57699023965029,
          -11.444303367407977
        ]
      }
    },
    {
      "type": "Feature",
      "properties": {
        "norad_id": 66509,
        "name": "STARLINK-35598",
        "group": "last-30-days",
        "lat": -6.293937746329578,
        "lon": 164.3058881339008,
        "alt_km": 372.73789814429165,
        "timestamp": "2025-12-04T21:36:14.652405+00:00",
        "meta_object_name": "STARLINK-35598",
        "meta_object_id": "2025-263AA",
        "meta_epoch": "2025-12-04T14:00:01.000224",
        "meta_mean_motion": 15.66772869,
        "meta_eccentricity": 0.00017029,
        "meta_inclination": 42.999,
        "meta_ra_of_asc_node": 173.0008,
        "meta_arg_of_pericenter": 261.464,
        "meta_mean_anomaly": 100.9726,
        "meta_ephemeris_type": 0,
        "meta_classification_type": "U",
        "meta_norad_cat_id": 66509,
        "meta_element_set_no": 999,
        "meta_rev_at_epoch": 432,
        "meta_bstar": -0.02103605,
        "meta_mean_motion_dot": -0.02008135,
        "meta_mean_motion_ddot": 0,
        "tle_line1": "1 66509U 25263AA  25338.58334491 -.02008135  00000+0 -21036-1 0  9995",
        "tle_line2": "2 66509  42.9990 173.0008 0001702 261.4640 100.9726 15.66772869  4324"
      },
      "geometry": {
        "type": "Point",
        "coordinates": [
          164.3058881339008,
          -6.293937746329578
        ]
      }
    },
    {
      "type": "Feature",
      "properties": {
        "norad_id": 66510,
        "name": "STARLINK-35600",
        "group": "last-30-days",
        "lat": -10.165675147410285,
        "lon": 160.02384739316875,
        "alt_km": 373.0177218473682,
        "timestamp": "2025-12-04T21:36:14.652415+00:00",
        "meta_object_name": "STARLINK-35600",
        "meta_object_id": "2025-263AB",
        "meta_epoch": "2025-12-04T14:00:01.000224",
        "meta_mean_motion": 15.66777008,
        "meta_eccentricity": 0.00016959,
        "meta_inclination": 42.9989,
        "meta_ra_of_asc_node": 173.0158,
        "meta_arg_of_pericenter": 262.2611,
        "meta_mean_anomaly": 94.4209,
        "meta_ephemeris_type": 0,
        "meta_classification_type": "U",
        "meta_norad_cat_id": 66510,
        "meta_element_set_no": 999,
        "meta_rev_at_epoch": 432,
        "meta_bstar": -0.021076121,
        "meta_mean_motion_dot": -0.02011788,
        "meta_mean_motion_ddot": 0,
        "tle_line1": "1 66510U 25263AB  25338.58334491 -.02011788  00000+0 -21076-1 0  9999",
        "tle_line2": "2 66510  42.9989 173.0158 0001695 262.2611  94.4209 15.66777008  4321"
      },
      "geometry": {
        "type": "Point",
        "coordinates": [
          160.02384739316875,
          -10.165675147410285
        ]
      }
    },
    {
      "type": "Feature",
      "properties": {
        "norad_id": 66511,
        "name": "STARLINK-35444",
        "group": "last-30-days",
        "lat": -7.5891924880788695,
        "lon": 162.88873120993094,
        "alt_km": 372.83050971597186,
        "timestamp": "2025-12-04T21:36:14.652425+00:00",
        "meta_object_name": "STARLINK-35444",
        "meta_object_id": "2025-263AC",
        "meta_epoch": "2025-12-04T14:00:01.000224",
        "meta_mean_motion": 15.6677639,
        "meta_eccentricity": 0.0001635,
        "meta_inclination": 42.999,
        "meta_ra_of_asc_node": 173.0066,
        "meta_arg_of_pericenter": 262.236,
        "meta_mean_anomaly": 98.2832,
        "meta_ephemeris_type": 0,
        "meta_classification_type": "U",
        "meta_norad_cat_id": 66511,
        "meta_element_set_no": 999,
        "meta_rev_at_epoch": 432,
        "meta_bstar": -0.021100943,
        "meta_mean_motion_dot": -0.02013773,
        "meta_mean_motion_ddot": 0,
        "tle_line1": "1 66511U 25263AC  25338.58334491 -.02013773  00000+0 -21101-1 0  9995",
        "tle_line2": "2 66511  42.9990 173.0066 0001635 262.2360  98.2832 15.66776390  4324"
      },
      "geometry": {
        "type": "Point",
        "coordinates": [
          162.88873120993094,
          -7.5891924880788695
        ]
      }
    },
    {
      "type": "Feature",
      "properties": {
        "norad_id": 66512,
        "name": "STARLINK-35366",
        "group": "last-30-days",
        "lat": -4.995395648844555,
        "lon": 165.71705630493116,
        "alt_km": 372.63997727081824,
        "timestamp": "2025-12-04T21:36:14.652436+00:00",
        "meta_object_name": "STARLINK-35366",
        "meta_object_id": "2025-263AD",
        "meta_epoch": "2025-12-04T14:00:01.000224",
        "meta_mean_motion": 15.66776167,
        "meta_eccentricity": 0.00015883,
        "meta_inclination": 42.999,
        "meta_ra_of_asc_node": 172.9967,
        "meta_arg_of_pericenter": 261.0101,
        "meta_mean_anomaly": 103.3415,
        "meta_ephemeris_type": 0,
        "meta_classification_type": "U",
        "meta_norad_cat_id": 66512,
        "meta_element_set_no": 999,
        "meta_rev_at_epoch": 432,
        "meta_bstar": -0.021075059,
        "meta_mean_motion_dot": -0.0201155,
        "meta_mean_motion_ddot": 0,
        "tle_line1": "1 66512U 25263AD  25338.58334491 -.02011550  00000+0 -21075-1 0  9997",
        "tle_line2": "2 66512  42.9990 172.9967 0001588 261.0101 103.3415 15.66776167  4327"
      },
      "geometry": {
        "type": "Point",
        "coordinates": [
          165.71705630493116,
          -4.995395648844555
        ]
      }
    },
    {
      "type": "Feature",
      "properties": {
        "norad_id": 66513,
        "name": "STARLINK-35692",
        "group": "last-30-days",
        "lat": -8.87977286618372,
        "lon": 161.46157919867022,
        "alt_km": 372.8957112607859,
        "timestamp": "2025-12-04T21:36:14.652446+00:00",
        "meta_object_name": "STARLINK-35692",
        "meta_object_id": "2025-263AE",
        "meta_epoch": "2025-12-04T14:00:01.000224",
        "meta_mean_motion": 15.66776279,
        "meta_eccentricity": 0.00017337,
        "meta_inclination": 42.9989,
        "meta_ra_of_asc_node": 173.011,
        "meta_arg_of_pericenter": 263.2233,
        "meta_mean_anomaly": 95.3776,
        "meta_ephemeris_type": 0,
        "meta_classification_type": "U",
        "meta_norad_cat_id": 66513,
        "meta_element_set_no": 999,
        "meta_rev_at_epoch": 432,
        "meta_bstar": -0.021087424,
        "meta_mean_motion_dot": -0.02012713,
        "meta_mean_motion_ddot": 0,
        "tle_line1": "1 66513U 25263AE  25338.58334491 -.02012713  00000+0 -21087-1 0  9993",
        "tle_line2": "2 66513  42.9989 173.0110 0001733 263.2233  95.3776 15.66776279  4324"
      },
      "geometry": {
        "type": "Point",
        "coordinates": [
          161.46157919867022,
          -8.87977286618372
        ]
      }
    },
    {
      "type": "Feature",
      "properties": {
        "norad_id": 66514,
        "name": "SENTINEL-6B",
        "group": "last-30-days",
        "lat": -57.25237412846827,
        "lon": 42.521536443633636,
        "alt_km": 1315.8423434382776,
        "timestamp": "2025-12-04T21:36:14.652459+00:00",
        "meta_object_name": "SENTINEL-6B",
        "meta_object_id": "2025-264A",
        "meta_epoch": "2025-12-04T14:43:24.145824",
        "meta_mean_motion": 12.85877672,
        "meta_eccentricity": 0.00115411,
        "meta_inclination": 66.039,
        "meta_ra_of_asc_node": 179.3839,
        "meta_arg_of_pericenter": 268.4634,
        "meta_mean_anomaly": 91.5062,
        "meta_ephemeris_type": 0,
        "meta_classification_type": "U",
        "meta_norad_cat_id": 66514,
        "meta_element_set_no": 999,
        "meta_rev_at_epoch": 224,
        "meta_bstar": 0.00029612691,
        "meta_mean_motion_dot": 1.1e-07,
        "meta_mean_motion_ddot": 0,
        "tle_line1": "1 66514U 25264A   25338.61347391  .00000011  00000+0  29613-3 0  9991",
        "tle_line2": "2 66514  66.0390 179.3839 0011541 268.4634  91.5062 12.85877672  2247"
      },
      "geometry": {
        "type": "Point",
        "coordinates": [
          42.521536443633636,
          -57.25237412846827
        ]
      }
    }
  ]
}